LEMUR-2-ANDIS           
1 42838U 17042P   26068.55941107  .00023598  00000+0  79875-3 0  9998
2 42838  97.3659 249.7950 0009101   4.3248 355.8070 15.30557934473198
STARLINK-34071          
1 63910U 25095W   26068.61331487  .00034405  00000+0  12519-2 0  9990
2 63910  43.0008 176.8681 0001289 259.3594 100.7112 15.27634340 47761
